Origin Time       2021/02/13 23:08:00
Lat.              37.728
Long.             141.698
Depth. (km)       55
Mag.              7.3
Station Code      KNG201
Station Lat.      34.5956
Station Long.     139.9183
Station Height(m) -2197
Record Time       2021/02/13 23:08:47
Sampling Freq(Hz) 100Hz
Duration Time(s)  300
Dir.              E-W
Scale Factor      2000(gal)/6182761
Max. Acc. (gal)   36.247
Last Correction   2021/02/13 23:08:47
Memo.             
[...]
  -80849   -85417   -84208   -75890   -60536   -39375   -14406    11767 
   36394    56561    69195    72838    68544    57721    40965    19340 
   -4788   -28173   -48256   -64405   -76855   -85565   -90721   -92045 
  -87401   -74133   -51671   -22643     8405    37847    63004    80501 
   88513    88611    83170    73807    62068    49499    37458    26660 
   16863     7805      -78    -6232   -10505   -12601   -11722    -7696 
   -1305     6994    16759    26229    32880    34457    29342    17606 
    1625   -15408   -31257   -44954   -56544   -66684   -75518   -81544 
  -81978   -74266   -57197   -31943    -2677    25614    49450    66029 
   73105    70239    58253    39279    17533    -2615   -18817   -29933 
  -34914   -33653   -27443   -18117    -7960      367     5107     6277 
    5433     4589     4968     7016    10605    14657    18018    20474 
   22117    22965    23372    24118    25962    28845    31978    34702 
   36438    36139    32627    25423    15260     4105    -5859   -13604 
  -19363   -23898   -27985   -31958   -35477   -37609   -36976   -32416 
  -23757   -11562     3310    18968    32101    39808    41320    37307 
   29176    19002     8396    -1862   -11302   -19835   -26896   -30842 
  -30239   -24863   -15705    -4561     6457    15045    19447    19908 
   18590    17379    16393    14644    10908     4356    -4128   -11795 
  -16085   -16014   -11881    -5546     -553       20    -4191   -11342 
  -19482   -27130   -31807   -30320   -21966    -9383     4145    16136 
   24426    27589    26121    21894    16646    12068     9987    11206 
   14739    18080    17980    11679    -1591   -20061   -40423   -58887 
  -71882   -77313   -75237   -67206   -55578   -43054   -31757   -22384 
  -14261    -6139     2864    12726    22587    31127    37450    41910 
   45605    49172    52164    53466    52266    48020    39952    28145 
   14692     2400    -7105   -13241   -15961   -16231   -15317   -13535 
  -10740    -6908    -1942     4291    11461    17897    21118    19538 
   12723     1194   -13315   -28515   -42048   -51434   -54829   -51942 
  -44194   -34511   -26485   -22498   -22450   -24718   -27546   -29315 
  -28636   -24750   -17753    -8140     3918    18276    33517    46474 
   53877    54048    46690    33025    16232     -171   -13612   -22100 
  -24648   -21958   -15631    -7113     2150    10490    16843    21120 
   23513    23802    21453    16678    10636     4313    -1819    -7330 
  -11906   -15778   -19556   -23413   -27010   -30040   -32094   -32485 
  -30550   -25580   -16815    -4373    10353    25661    39772    50380 
   55778    56109    52766    47407    41301    34700    26876    16814 
    4419    -8613   -19879   -27668   -30790   -28601   -21560   -10901 
    1846    14547    24727    30962    33197    31445    25460    15848 
    4255    -7588   -18122   -26059   -31165   -34386   -37017   -39908 
  -42965   -45052   -44277   -38530   -26685    -9900     8766    26178 
   39867    47827    49359    45650    38328    28105    15571     2276 
  -10035   -20627   -29418   -36200   -40873   -43501   -43691   -40533 
  -33266   -21731    -6258    12119    31060    47647    59707    65735 
   64740    57224    45403    31914    18650     6660    -3418   -11287 
  -17584   -23875   -30932   -37708   -42594   -44082   -40715   -32348 
  -20705    -8454     2006     9393    13128    12906     9054     2594 
   -4505    -9804   -12277   -12645   -11955   -11215   -11912   -15057 
  -19525   -22918   -23705   -21218   -14959    -5309     6046    17096 
   26329    32869    36698    38569    39619    40892    42804    45223 
   47341    47288    43087    34246    22065     8407    -5305   -17729 
  -27480   -33948   -37341   -37770   -35101   -29864   -23587   -18021 
  -14450   -13448   -14833   -17798   -21188   -23948   -25250   -24409 
  -21498   -17545   -13813   -11771   -12603   -15321   -16553   -12943 
   -3408    10596    26133    39755    48654    51831    49534    42603 
   33401    24857    17950    12208     7183     2067    -4086   -11263 
  -18496   -24736   -29247   -30874   -27955   -19574    -6259    10171 
   27259    42500    53144    56778    52543    41042    23925     4063 
  -15133   -31301   -43533   -51417   -54754   -53888   -49570   -42799 
  -34634   -25686   -16124    -6491     2389    10525    18345    25671 
   31999    36693    39128    39319    37281    32112    22790     9279 
   -7384   -24980   -39876   -48411   -48791   -41309   -28173   -13121 
     181     9245    12869    11506     6983     1237    -3896    -6420 
   -4860     1213    11124    22751    32847    38802    39915    36974 
   31755    26658    23776    24159    27507    32384    36580    37284 
   32426    22340     8966    -5979   -20987   -34070   -43435   -48912 
  -51920   -53532   -53178   -49799   -43483   -35229   -26079   -17272 
  -10245    -6153    -5574    -7967   -11607   -14483   -15195   -13328 
   -9321    -3988     2144     9086    16595    23505    28514    31083 
   31001    27746    21114    12060     2059    -7513   -15122   -19478 
  -20261   -18241   -14994   -12241   -11166   -12017   -13937   -15232 
  -14297   -10665    -5087     1095     6542    10423    12601    13595 
   14506    16287    18743    20895    22224    22874    23036    22715 
   21878    20259    17030    11160     2130    -9318   -21068   -30937 
  -37498   -39908   -38756   -36060   -33328   -31029   -29513   -28708 
  -27634   -25199   -20886   -14893    -8252    -2316     1845     3682 
    3472     1876     -849    -4410    -7819    -9840    -9517    -6184 
     169     8641    17868    26315    32613    35736    34546    28107 
   16924     3429    -9113   -18535   -24456   -27272   -27383   -25252 
  -21309   -15852    -9329    -2230     5143    11966    16904    19477 
   20190    19749    18911    18057    17131    16263    15566    14887 
   14139    13434    13156    13745    15109    16522    16949    15209 
   10316     2241    -7785   -17963   -26719   -33355   -38382   -42751 
  -46890   -50809   -54060   -55134   -52047   -43711   -30437   -13635 
    4734    22407    36935    46727    51922    53618    52855    50195 
   45443    38168    28474    16832     4241    -7417   -16530   -22713 
  -26156   -27628   -29020   -31835   -35583   -39008   -41358   -41615 
  -38529   -31734   -21567    -8369     7426    25166    43993    62313 
   77623    88365    95159    98867    99563    97854    94288    88572 
   80976    72524    63915    55168    45546    34110    20465     4986 
  -11017   -25383   -35873   -41224   -41402   -37371   -31113   -24851 
  -20151   -17940   -18361   -20830   -24574   -28757   -32553   -35277 
  -36346   -35425   -32460   -27795   -22439   -17769   -14923   -14252 
  -14886   -15117   -13646   -10504    -6972    -4925    -6175   -11837 
  -21717   -34431   -48174   -60957   -70545   -75190   -74495   -69164 
  -60323   -49562   -38591   -27921   -16873    -5088     6915    18088 
   27117    33032    35695    35344    32245    26990    20688    14845 
   10708     8786     9303    12414    18044    25653    33824    40906 
   45943    48486    48568    46653    42919    37378    30386    22071 
   12014      191   -12304   -23601   -31638   -34528   -31082   -21555 
   -7969     6725    19825    29332    34093    33913    29329    21259 
   10766    -1162   -14020   -28053   -43342   -58461   -71146   -79993 
  -83982   -81705   -72673   -57751   -38318   -16625     4333    22001 
   34626    41589    43745    42260    37780    31453    24994    19251 
   14096     9240     4169    -1696    -8078   -13830   -17853   -19621 
  -19140   -16690   -12870    -8840    -6160    -6170    -8990   -13313 
  -17390   -19514   -17925   -11474     -527    12948    26145    36559 
   42498    42791    37101    26465    12769    -1768   -14993   -25235 
  -31141   -32371   -30175   -26059   -21133   -16491   -12603    -8869 
   -4182     2541    12004    23849    36286    46918    54133    57671 
   58131    56366    53394    50114    46555    42160    37015    31678 
   26168    20334    14526     9203     4796     2164     2174     4445 
    7051     7957     6299     2079    -4319   -11904   -19287   -25494 
  -30031   -32934   -35494   -39513   -45553   -52923   -60504   -66849 
  -70568   -71219   -69024   -63859   -55640   -45348   -34778   -25429 
  -18149   -13462   -11340   -11105   -11901   -12672   -12418   -11034 
   -9047    -6726    -4349    -2670    -2021    -1745    -1021      689 
    3700     7904    12859    17838    22160    25926    29430    32532 
   35660    39788    45036    50442    54470    55710    54165    51146 
   47812    44774    42408    41093    41154    42005    42324    41557 
   39881    37098    32475    25269    15499     4180    -7269   -17213 
  -23839   -25798   -22651   -15048    -4870     5511    14245    20077 
   22403    21445    17642    11298     2717    -7930   -20162   -32543 
  -43435   -52250   -59441   -65577   -70492   -73182   -72417   -67367 
  -58563   -48300   -38974   -31643   -26554   -23582   -22043   -20872 
  -18980   -15577   -10528    -4175     3244    11593    20755    30807 
   41494    51754    60259    66072    68902    68638    64831    57466 
   47653    36763    25605    14748     5109    -2090    -5717    -4930 
     449     9423    20013    29966    37486    41700    42356    39435 
   33226    24418    13874     2130   -10596   -23711   -36149   -46940 
  -55177   -59779   -59984   -55650   -47215   -36065   -24491   -14619 
   -7628    -3899    -3221    -4888    -7968   -11554   -15159   -19065 
  -23605   -28102   -31491   -33358   -33303   -30598   -25205   -18018 
  -10209    -2709     4165    10503    16351    21786    26801    30815 
   32812    32003    28061    21180    12423     3390    -4974   -12527 
  -18992   -23827   -26627   -27001   -24441   -18880   -11369    -3778 
    2218     5910     7854     9488    11903    15156    18981    23149 
   27073    30299    32950    35109    36409    36363    34639    30738 
   23839    13691     1193   -12124   -24631   -35015   -42669   -47581 
  -50146   -50955   -50460   -49342   -48567   -48106   -46792   -43877 
  -39758   -35509   -32232   -30588   -30819   -32750   -35529   -37737 
  -38012   -35684   -30816   -23546   -13710    -1389    12630    27244 
   41342    53540    62280    66716    66999    63534    56942    48448 
   39078    29411    20432    13082     7217     2039    -3012    -8121 
  -13214   -17885   -21320   -22481   -20610   -15544    -7668     2087 
   12336    21618    28728    32914    33905    31850    27158    20381 
   12474     4517    -2825    -8573   -11284   -10456    -6725    -1047 
    5264    10755    14544    16391    16348    14536    10946     5398 
   -2160   -11264   -20880   -29805   -37133   -41957   -43081   -39669 
  -31518   -19024    -3741    12077    26916    40185    51462    60508 
   67326    71747    73410    71941    67341    60419    52271    43634 
   35000    26785    19330    12847     7314     2681    -1242    -5126 
   -9356   -13428   -16793   -19375   -21365   -23164   -25003   -26573 
  -27408   -27411   -26824   -25891   -24967   -24612   -25028   -25817 
  -26366   -26101   -24809   -23001   -21759   -22091   -24253   -27677 
  -31444   -34417   -35436   -34192   -31585   -28863   -26738   -25486 
  -25302   -26042   -27094   -27492   -25882   -21213   -13737    -4689 
    4394    11864    16698    19126    19727    18581    15979    12920 
   10330     8695     8285     8931    10106    11322    12231    12867 
   13342    13388    12942    12127    10642     8396     5677     2200 
   -2475    -7822   -12498   -15025   -14426   -10827    -5456     -199 
    3029     3392     1665     -753    -2741    -3406    -2315        0 
    2270     3394     3251     2709     3052     5641    11325    19556 
   28640    36595    41378    41519    36984    28827    18376     6767 
   -5431   -18048   -30733   -42949   -54013   -62764   -67853   -68283 
  -63415   -53278   -38796   -21375    -2576    16226    34020    49618 
   61620    69254    72325    70658    64537    54966    42802    28197 
   11218    -7167   -24935   -39657   -49395   -53657   -53387   -49773 
  -43461   -35005   -25265   -14952    -4490     5543    14499    21709 
   26417    28271    27509    24868    21668    19211    18234    18888 
   20643    22690    24555    26198    27811    29247    29962    29810 
   29066    27856    26183    23900    20614    16238    11319     6518 
    2155    -1947    -6144   -10289   -13798   -16227   -17382   -17360 
  -16650   -15742   -14691   -13290   -11511    -9492    -7440    -5975 
   -6063    -8248   -12231   -17305   -22746   -27687   -31400   -33800 
  -35385   -36936   -38886   -40974   -42905   -44638   -45942   -46520 
  -46303   -45153   -42433   -37150   -28793   -17933    -5673     7105 
   19530    30375    38600    43701    45271    42996    37204    29045 
   19913    10672     1917    -5604   -11540   -16147   -19859   -22839 
  -24771   -25262   -24055   -20720   -14879    -6722     2873    12795 
   22292    30968    38404    43899    46644    46263    43029    37707 
   31478    25711    21315    18322    16093    13862    11491     9714 
    9484    11681    16835    24380    32953    41057    46985    49253 
   47285    41228    31623    19848     8401     -318    -5088    -5461 
   -1797     4460    11583    18141    23002    25478    25138    21554 
   14527     4488    -7335   -19635   -31946   -44265   -56250   -67541 
  -78219   -88243   -97092  -104364  -109724  -112256  -111085  -106256 
  -98452   -88725   -78480   -68833   -60059   -51844   -43801   -35610 
  -26930   -17494    -7273     3209    12731    20043    24505    26267 
   26275    25799    25723    26253    27471    29727    33184    37423 
   41429    44095    45107    44895    43728    41744    39612    38326 
   38444    39694    41079    41682    41334    40225    38457    36513 
   35259    34870    34680    34077    32637    30109    26882    23805 
   21563    20476    20323    20011    17983    13366     6306    -2656 
  -12636   -22123   -29551   -33916   -34653   -31721   -25970   -18680 
  -11045    -4313      395     2546     2220     -115    -3680    -7310 
   -9848   -10862   -10547    -9356    -8028    -7166    -6926    -7505 
   -9195   -11837   -14694   -16972   -18389   -18944   -18467   -17116 
  -15479   -13778   -12081   -10443    -8257    -5048    -1337     2161 
    4936     6605     7290     7429     7368     7386     7580     7815 
    7848     7396     6497     5539     4843     4645     4956     5009 
    3426     -869    -7966   -16738   -25245   -31707   -35113   -35239 
  -32659   -28698   -24842   -21908   -20163   -19795   -20445   -21183 
  -21445   -21080   -20054   -18643   -17124   -15529   -14055   -12699 
  -10625    -6829    -1003     6530    14985    23245    30394    36116 
   40514    43750    45948    47226    47554    46668    44330    40368 
   34423    25952    14692     1196   -13288   -27403   -39882   -49534 
  -55524   -57586   -55851   -50697   -42947   -34115   -25858   -19062 
  -13861   -10235    -7981    -6248    -4120    -1640      783     3109 
    5344     7558     9787    11998    14573    17871    21572    25102 
   27944    29565    29672    28424    26370    24302    23040    23100 
   24420    26533    29114    32079    35166    37907    40047    41451 
   41732    40404    37090    31737    25144    18573    12517     6704 
    1012    -4360    -9039   -12409   -13921   -13254   -10133    -4743 
    2043     9131    15332    19738    22116    22168    19271    13273 
    4532    -6222   -17656   -28448   -37572   -43825   -46380   -45428 
  -41776   -36642   -31488   -27329   -24439   -22479   -20417   -16938 
  -11538    -5079     1072     5982     9057    10129     9795     8886 
    7959     7393     7367     7866     8712     9296     8651     6107 
    1749    -3762    -9533   -14734   -19066   -22819   -26212   -29208 
  -31670   -33040   -32610   -30422   -27267   -23955   -20830   -17857 
  -15145   -13112   -11907   -10955    -9514    -7357    -4723    -2363 
   -1322    -1853    -3163    -4313    -4681    -3924    -1979      980 
    4587     8286    11536    14048    15786    17241    19280    21966 
   24540    26460    27462    27327    26054    23926    21471    19268 
   17598    16477    16058    16548    17801    19333    20541    21034 
   20795    19977    18762    17158    14947    12135     9006     5751 
    2518     -405    -2649    -3809    -3735    -2765    -1206      746 
    2281     2501     1470     -251    -2340    -4636    -7149   -10032 
  -12994   -15333   -16741   -17390   -17535   -17524   -17749   -18290 
  -18835   -18932   -18050   -15723   -12004    -7688    -3916    -1390 
    -167     -204    -1556    -3915    -6566    -8977   -10848   -11779 
  -11408    -9645    -6732    -3172      446     3626     6082     7494 
    7426     5842     3181      -84    -3476    -6514    -9051   -11019 
  -11804   -10880    -8611    -5663    -2555      222     2606     5023 
    7854    11218    14788    17861    20058    21565    22715    23835 
   25204    26828    28452    29658    29900    28771    26076    21654 
   15612     8423      607    -6988   -13007   -16559   -17717   -16996 
  -15196   -13517   -13057   -14007   -15608   -17073   -18097   -18436 
  -17993   -17139   -16245   -15522   -15207   -15293   -15469   -15576 
  -15755   -15955   -15738   -15092   -14853   -15640   -16822   -17183 
  -16185   -14070   -11379    -8894    -7560    -8082   -10691   -15107 
  -20374   -25035   -27857   -28312   -26587   -23491   -20297   -18105 
  -17191   -17129   -17140   -16385   -14321   -10597    -4950     2491 
   11076    19874    28010    34762    39503    41883    41965    40183 
   37255    33870    30546    27864    26405    26224    26799    27707 
   28821    29877    30473    30489    30260    30225    30610    31441 
   32525    33387    33314    31651    28261    23639    18584    13786 
    9570     5786     1902    -2826    -9068   -16956   -25970   -35174 
  -43410   -49774   -54161   -57187   -59579   -61608   -63002   -63453 
  -63065   -61887   -59483   -55614   -50675   -45154   -39365   -33677 
  -28302   -23097   -18018   -13314    -9188    -5767    -3203    -1506 
    -366      894     3071     6759    12294    19492    27444    34910 
   40690    43965    44648    43223    40327    36386    31634    26346 
   20699    14845     9130     3866     -541    -3452    -4661    -4634 
   -3633    -1352     2221     6517    11177    16104    20818    24745 
   27896    30557    32800    34659    36032    36373    35317    33304 
   30984    28671    26553    24626    22618    20464    18311    15975 
   12992     9241     5013      409    -4731   -10342   -16411   -23259 
  -30711   -37855   -43899   -48253   -50295   -49851   -47269   -42871 
  -37031   -30392   -23301   -15734    -8043     -904     5160     9623 
   12114    12903    12655    12105    12181    13376    15096    16453 
   16966    16289    14038    10022     4550    -1639    -7718   -12765 
  -15972   -17160   -16806   -15688   -14461   -13502   -13294   -14458 
  -17252   -21447   -26324   -30761   -33916   -35619   -35956   -35062 
  -33317   -31157   -28762   -26251   -23895   -21680   -19012   -15287 
  -10281    -3902     3624    11521    18929    25160    29684    32266 
